ONEWEB-0144             
1 47290U 20100AJ  24326.36820854  .00000284  00000+0  75378-3 0  9994
2 47290  87.8863 104.7128 0001185 100.6724 259.4538 13.12441514189439
ONEWEB-0145             
1 47291U 20100AK  24326.33898405 -.00000328  00000+0 -94583-3 0  9999
2 47291  87.8865 104.7425 0001401 100.6335 259.4952 13.12440173189622
ONEWEB-0146             
1 47292U 20100AL  24325.42089610 -.00000778  00000+0 -21990-2 0  9999
2 47292  87.8859 104.9107 0001921  93.7466 266.3882 13.12442010189417
ONEWEB-0147             
1 47293U 20100AM  24326.37793895  .00000444  00000+0  12001-2 0  9993
2 47293  87.8858 104.7083 0001369  88.3689 271.7597 13.12440669189434
ONEWEB-0115             
1 48042U 21025A   24325.78666208 -.00000078  00000+0 -24809-3 0  9999
2 48042  87.8921  74.2784 0001722 100.1048 260.0275 13.13469557178320
ONEWEB-0152             
1 48043U 21025B   24325.34227316 -.00000232  00000+0 -67043-3 0  9994
2 48043  87.8922  74.3706 0001653  99.0551 261.0765 13.13469231178228
ONEWEB-0153             
1 48044U 21025C   24326.23419088  .00000302  00000+0  79181-3 0  9995
2 48044  87.8929  74.1847 0001596 102.6290 257.5018 13.13471492178332
ONEWEB-0154             
1 48045U 21025D   24325.77394784 -.00000850  00000+0 -23619-2 0  9993
2 48045  87.8926  74.2835 0001537  99.8195 260.3108 13.13464158178236
